{
"type": "FeatureCollection",
"name": "districts",
"crs": { "type": "name", "properties": { "name": "urn:ogc:def:crs:OGC:1.3:CRS84" } },
"features": [
{ "type": "Feature", "properties": { "district_id": "D1", "name": "城西区", "population": 460000 }, "geometry": { "type": "Polygon", "coordinates": [ [ [ 121.356287790402419, 31.185 ], [ 121.354708846169942, 31.247183364680744 ], [ 121.478624487163387, 31.247183364680744 ], [ 121.481493270522677, 31.185 ], [ 121.478624487163387, 31.122816635319257 ], [ 121.354708846169942, 31.122816635319257 ], [ 121.356287790402419, 31.185 ] ] ] } },
{ "type": "Feature", "properties": { "district_id": "D2", "name": "城东区", "population": 340000 }, "geometry": { "type": "Polygon", "coordinates": [ [ [ 121.485772920625479, 31.185 ], [ 121.48874801156407, 31.246216580894028 ], [ 121.611251988435939, 31.246216580894028 ], [ 121.613540502878152, 31.185 ], [ 121.611251988435939, 31.123783419105973 ], [ 121.48874801156407, 31.123783419105973 ], [ 121.485772920625479, 31.185 ] ] ] } },
{ "type": "Feature", "properties": { "district_id": "D3", "name": "高新区", "population": 670000 }, "geometry": { "type": "Polygon", "coordinates": [ [ [ 121.621393938409938, 31.185 ], [ 121.620243017449297, 31.247387605927301 ], [ 121.746423649217363, 31.247387605927301 ], [ 121.749837769128149, 31.185 ], [ 121.746423649217363, 31.1226123940727 ], [ 121.620243017449297, 31.1226123940727 ], [ 121.621393938409938, 31.185 ] ] ] } },
{ "type": "Feature", "properties": { "district_id": "D4", "name": "滨江区", "population": 1110000 }, "geometry": { "type": "Polygon", "coordinates": [ [ [ 121.350062487744722, 31.315 ], [ 121.353551949695884, 31.377818283834646 ], [ 121.479781383637444, 31.377818283834646 ], [ 121.48021806193357, 31.315 ], [ 121.479781383637444, 31.252181716165353 ], [ 121.353551949695884, 31.252181716165353 ], [ 121.350062487744722, 31.315 ] ] ] } },
{ "type": "Feature", "properties": { "district_id": "D5", "name": "城南新区", "population": 320000 }, "geometry": { "type": "Polygon", "coordinates": [ [ [ 121.487066250180348, 31.315 ], [ 121.488230042435305, 31.376605006802635 ], [ 121.611769957564704, 31.376605006802635 ], [ 121.613834659485391, 31.315 ], [ 121.611769957564704, 31.253394993197364 ], [ 121.488230042435305, 31.253394993197364 ], [ 121.487066250180348, 31.315 ] ] ] } },
{ "type": "Feature", "properties": { "district_id": "D6", "name": "老城区", "population": 1260000 }, "geometry": { "type": "Polygon", "coordinates": [ [ [ 121.621526358621097, 31.315 ], [ 121.621792590591284, 31.376164849508779 ], [ 121.744874076075376, 31.376164849508779 ], [ 121.742431185738198, 31.315 ], [ 121.744874076075376, 31.25383515049122 ], [ 121.621792590591284, 31.25383515049122 ], [ 121.621526358621097, 31.315 ] ] ] } }
]
}
