{
"type": "FeatureCollection",
"name": "flood_zone",
"crs": { "type": "name", "properties": { "name": "urn:ogc:def:crs:OGC:1.3:CRS84" } },
"features": [
{ "type": "Feature", "properties": { "zone_type": "洪水风险区", "return_period_yr": 50 }, "geometry": { "type": "Polygon", "coordinates": [ [ [ 121.383089200787026, 31.203889069207808 ], [ 121.398742274724327, 31.208522105847564 ], [ 121.398800230242713, 31.20853903897321 ], [ 121.414453314133311, 31.21305302903783 ], [ 121.414540762175676, 31.213077752564558 ], [ 121.4301938602961, 31.217415074777893 ], [ 121.43031064050308, 31.217446565715328 ], [ 121.445963756561795, 31.221551853867947 ], [ 121.446109520260904, 31.221588754576036 ], [ 121.461762657225336, 31.225409604261802 ], [ 121.46193676091228, 31.225450243080534 ], [ 121.477589920853006, 31.228937880638753 ], [ 121.477791305358025, 31.228980312727924 ], [ 121.493444489318961, 31.232090217854726 ], [ 121.493671556838521, 31.232132293170007 ], [ 121.509324764745699, 31.234824767251894 ], [ 121.509575270515285, 31.234864230128437 ], [ 121.525228501136596, 31.237104903042876 ], [ 121.52549947991703, 31.237139523024936 ], [ 121.541152730885642, 31.238899791935282 ], [ 121.541440478775456, 31.238927518583331 ], [ 121.55709374668514, 31.240184913121446 ], [ 121.557393874355412, 31.240204039825649 ], [ 121.573047154931132, 31.240942508993417 ], [ 121.573354718574862, 31.240951824542979 ], [ 121.589008006911229, 31.241161941661119 ], [ 121.58931770928892, 31.241160846010334 ], [ 121.604971000141632, 31.240839929090821 ], [ 121.605277439444208, 31.240828493193426 ], [ 121.62093072754935, 31.239980639192634 ], [ 121.621228660856332, 31.239959597848983 ], [ 121.63688194124974, 31.238595630362134 ], [ 121.63716652588478, 31.238566309422954 ], [ 121.652819794191672, 31.236703640489154 ], [ 121.653086775517451, 31.236667831746814 ], [ 121.668740028189575, 31.234330239534341 ], [ 121.668985854468175, 31.234290044649264 ], [ 121.684639088952437, 31.231507369866389 ], [ 121.684860948755556, 31.231465036842803 ], [ 121.700514163588679, 31.228272801758006 ], [ 121.700709954510756, 31.228230574154935 ], [ 121.716363149342413, 31.224669529097053 ], [ 121.71653139548161, 31.224629521370698 ], [ 121.732184571034622, 31.220745124503747 ], [ 121.732915429605725, 31.220529792352565 ], [ 121.733618205622804, 31.220253929029251 ], [ 121.734286129894329, 31.219920191727482 ], [ 121.73491276911794, 31.219531795081696 ], [ 121.735492087868593, 31.219092480186898 ], [ 121.736018506743903, 31.218606478545819 ], [ 121.736486956106276, 31.21807847129196 ], [ 121.736892924903785, 31.217513544081758 ], [ 121.737232504099907, 31.216917138091716 ], [ 121.737502424293865, 31.216294997593163 ], [ 121.737700087171092, 31.215653114610305 ], [ 121.737823590481483, 31.214997671195786 ], [ 121.737871746307249, 31.214334979879904 ], [ 121.737844092445982, 31.213671422867904 ], [ 121.737740896801895, 31.213013390570943 ], [ 121.737563154744819, 31.212367220063271 ], [ 121.737312579465254, 31.211739134057936 ], [ 121.736991585419986, 31.211135180988755 ], [ 121.736603265030666, 31.210561176775151 ], [ 121.736151358860624, 31.210022648830016 ], [ 121.735640219559613, 31.20952478284935 ], [ 121.735074769924509, 31.209072372895026 ], [ 121.734460455480502, 31.208669775250733 ], [ 121.733803192040355, 31.208320866494393 ], [ 121.73310930874608, 31.208029006189751 ], [ 121.732385487141343, 31.207797004555818 ], [ 121.731638696860415, 31.207627095424133 ], [ 121.730876128551515, 31.20752091474392 ], [ 121.730105124678659, 31.207479484841087 ], [ 121.729333108866896, 31.207503204582377 ], [ 121.728567514468764, 31.207591845538918 ], [ 121.72781571303787, 31.207744554185854 ], [ 121.712248394707487, 31.211607677491514 ], [ 121.69677917929674, 31.21512690452958 ], [ 121.681336803059679, 31.218276187756572 ], [ 121.665919484572939, 31.22101697681029 ], [ 121.650524771659278, 31.223316018720027 ], [ 121.63514948320595, 31.225145672311264 ], [ 121.61978971132686, 31.226484129867117 ], [ 121.604440897346777, 31.227315558233055 ], [ 121.589097983969893, 31.227630177849008 ], [ 121.573755631666288, 31.227424299941475 ], [ 121.558408473521908, 31.22670033800155 ], [ 121.543051373905143, 31.225466800464346 ], [ 121.527679655396938, 31.223738260006943 ], [ 121.512289265839016, 31.221535284905169 ], [ 121.496876870458266, 31.218884312579952 ], [ 121.481439868608859, 31.215817446039548 ], [ 121.465976346680407, 31.212372159453345 ], [ 121.450484985836951, 31.208590907284979 ], [ 121.434964945187886, 31.204520639779851 ], [ 121.41941573898832, 31.200212234348946 ], [ 121.403837122354091, 31.195719856731795 ], [ 121.388228995411765, 31.191100267807155 ], [ 121.372591908265861, 31.186412264910203 ], [ 121.371851145515748, 31.186224627396737 ], [ 121.371092559198885, 31.186100310229431 ], [ 121.370323453469879, 31.186040510353195 ], [ 121.369551233693912, 31.186045803499436 ], [ 121.368783335188198, 31.18611613864806 ], [ 121.3680271516766, 31.186250838520547 ], [ 121.367289964143907, 31.186448606099173 ], [ 121.366578870772557, 31.186707537109708 ], [ 121.365900718634734, 31.187025138347735 ], [ 121.365262037795247, 31.187398351672517 ], [ 121.364668978458454, 31.187823583438252 ], [ 121.364127251763108, 31.188296739079544 ], [ 121.363642074794285, 31.188813262519453 ], [ 121.363218120341614, 31.189368180021305 ], [ 121.362859471887205, 31.189956148062763 ], [ 121.362569584257912, 31.190571504772524 ], [ 121.362351250320785, 31.191208324434815 ], [ 121.362206574044421, 31.19186047453783 ], [ 121.362136950186922, 31.192521674817371 ], [ 121.362143050808015, 31.193185557727883 ], [ 121.362224818737474, 31.193845729758557 ], [ 121.362381468064783, 31.194495833004648 ], [ 121.362611491648153, 31.19512960640095 ], [ 121.362912675572176, 31.195740946027477 ], [ 121.363282120417637, 31.196323963906494 ], [ 121.363716269140497, 31.196873044723905 ], [ 121.364210941293038, 31.197382899928403 ], [ 121.364761373259114, 31.19784861868618 ], [ 121.365362264117167, 31.198265715199941 ], [ 121.366007826689312, 31.198630171935406 ], [ 121.366691843285452, 31.198938478337968 ], [ 121.367407725604906, 31.199187664665775 ], [ 121.383060794250724, 31.203880607049818 ], [ 121.383089200787026, 31.203889069207808 ] ] ] } }
]
}
