{
"type": "FeatureCollection",
"name": "parcels",
"crs": { "type": "name", "properties": { "name": "urn:ogc:def:crs:OGC:1.3:CRS84" } },
"features": [
{ "type": "Feature", "properties": { "parcel_id": "P001", "landuse": "居住", "pop_density": 6533 }, "geometry": { "type": "Polygon", "coordinates": [ [ [ 121.398646888206073, 31.121407236265686 ], [ 121.398646888206073, 31.170592763734312 ], [ 121.351353111793927, 31.170592763734312 ], [ 121.351353111793927, 31.121407236265686 ], [ 121.398646888206073, 31.121407236265686 ] ] ] } },
{ "type": "Feature", "properties": { "parcel_id": "P002", "landuse": "商业", "pop_density": 3154 }, "geometry": { "type": "Polygon", "coordinates": [ [ [ 121.448497395557311, 31.121562708620395 ], [ 121.448497395557311, 31.17043729137961 ], [ 121.401502604442683, 31.17043729137961 ], [ 121.401502604442683, 31.121562708620395 ], [ 121.448497395557311, 31.121562708620395 ] ] ] } },
{ "type": "Feature", "properties": { "parcel_id": "P003", "landuse": "工业", "pop_density": 15024 }, "geometry": { "type": "Polygon", "coordinates": [ [ [ 121.498652145840268, 31.121401768326113 ], [ 121.498652145840268, 31.170598231673893 ], [ 121.451347854159707, 31.170598231673893 ], [ 121.451347854159707, 31.121401768326113 ], [ 121.498652145840268, 31.121401768326113 ] ] ] } },
{ "type": "Feature", "properties": { "parcel_id": "P004", "landuse": "商业", "pop_density": 16575 }, "geometry": { "type": "Polygon", "coordinates": [ [ [ 121.548669630899013, 31.121383583865029 ], [ 121.548669630899013, 31.170616416134976 ], [ 121.501330369100984, 31.170616416134976 ], [ 121.501330369100984, 31.121383583865029 ], [ 121.548669630899013, 31.121383583865029 ] ] ] } },
{ "type": "Feature", "properties": { "parcel_id": "P005", "landuse": "居住", "pop_density": 9165 }, "geometry": { "type": "Polygon", "coordinates": [ [ [ 121.599044074852912, 31.120994162152979 ], [ 121.599044074852912, 31.171005837847023 ], [ 121.550955925147093, 31.171005837847023 ], [ 121.550955925147093, 31.120994162152979 ], [ 121.599044074852912, 31.120994162152979 ] ] ] } },
{ "type": "Feature", "properties": { "parcel_id": "P006", "landuse": "居住", "pop_density": 11467 }, "geometry": { "type": "Polygon", "coordinates": [ [ [ 121.649178122990762, 31.120854752089599 ], [ 121.649178122990762, 31.171145247910403 ], [ 121.600821877009224, 31.171145247910403 ], [ 121.600821877009224, 31.120854752089599 ], [ 121.649178122990762, 31.120854752089599 ] ] ] } },
{ "type": "Feature", "properties": { "parcel_id": "P007", "landuse": "居住", "pop_density": 21399 }, "geometry": { "type": "Polygon", "coordinates": [ [ [ 121.69821989539011, 31.121851308794298 ], [ 121.69821989539011, 31.1701486912057 ], [ 121.651780104609912, 31.1701486912057 ], [ 121.651780104609912, 31.121851308794298 ], [ 121.69821989539011, 31.121851308794298 ] ] ] } },
{ "type": "Feature", "properties": { "parcel_id": "P008", "landuse": "居住", "pop_density": 1704 }, "geometry": { "type": "Polygon", "coordinates": [ [ [ 121.749077924161966, 31.120958958871555 ], [ 121.749077924161966, 31.171041041128447 ], [ 121.700922075838037, 31.171041041128447 ], [ 121.700922075838037, 31.120958958871555 ], [ 121.749077924161966, 31.120958958871555 ] ] ] } },
{ "type": "Feature", "properties": { "parcel_id": "P009", "landuse": "商业", "pop_density": 13229 }, "geometry": { "type": "Polygon", "coordinates": [ [ [ 121.398507125227908, 31.173552589762973 ], [ 121.398507125227908, 31.222447410237024 ], [ 121.351492874772092, 31.222447410237024 ], [ 121.351492874772092, 31.173552589762973 ], [ 121.398507125227908, 31.173552589762973 ] ] ] } },
{ "type": "Feature", "properties": { "parcel_id": "P010", "landuse": "居住", "pop_density": 20424 }, "geometry": { "type": "Polygon", "coordinates": [ [ [ 121.448503529689489, 31.17355632912291 ], [ 121.448503529689489, 31.222443670877087 ], [ 121.401496470310477, 31.222443670877087 ], [ 121.401496470310477, 31.17355632912291 ], [ 121.448503529689489, 31.17355632912291 ] ] ] } },
{ "type": "Feature", "properties": { "parcel_id": "P011", "landuse": "居住", "pop_density": 8824 }, "geometry": { "type": "Polygon", "coordinates": [ [ [ 121.498278969422998, 31.173789871800079 ], [ 121.498278969422998, 31.222210128199919 ], [ 121.451721030576991, 31.222210128199919 ], [ 121.451721030576991, 31.173789871800079 ], [ 121.498278969422998, 31.173789871800079 ] ] ] } },
{ "type": "Feature", "properties": { "parcel_id": "P012", "landuse": "工业", "pop_density": 785 }, "geometry": { "type": "Polygon", "coordinates": [ [ [ 121.549364928208846, 31.172660474662809 ], [ 121.549364928208846, 31.223339525337188 ], [ 121.500635071791166, 31.223339525337188 ], [ 121.500635071791166, 31.172660474662809 ], [ 121.549364928208846, 31.172660474662809 ] ] ] } },
{ "type": "Feature", "properties": { "parcel_id": "P013", "landuse": "居住", "pop_density": 23436 }, "geometry": { "type": "Polygon", "coordinates": [ [ [ 121.598807184154609, 31.173240528479194 ], [ 121.598807184154609, 31.22275947152081 ], [ 121.551192815845369, 31.22275947152081 ], [ 121.551192815845369, 31.173240528479194 ], [ 121.598807184154609, 31.173240528479194 ] ] ] } },
{ "type": "Feature", "properties": { "parcel_id": "P014", "landuse": "工业", "pop_density": 13126 }, "geometry": { "type": "Polygon", "coordinates": [ [ [ 121.649271531845926, 31.172757606880232 ], [ 121.649271531845926, 31.223242393119765 ], [ 121.60072846815406, 31.223242393119765 ], [ 121.60072846815406, 31.172757606880232 ], [ 121.649271531845926, 31.172757606880232 ] ] ] } },
{ "type": "Feature", "properties": { "parcel_id": "P015", "landuse": "居住", "pop_density": 6360 }, "geometry": { "type": "Polygon", "coordinates": [ [ [ 121.698830765586649, 31.173216003789896 ], [ 121.698830765586649, 31.222783996210104 ], [ 121.651169234413373, 31.222783996210104 ], [ 121.651169234413373, 31.173216003789896 ], [ 121.698830765586649, 31.173216003789896 ] ] ] } },
{ "type": "Feature", "properties": { "parcel_id": "P016", "landuse": "居住", "pop_density": 7979 }, "geometry": { "type": "Polygon", "coordinates": [ [ [ 121.748554576110323, 31.173503240845267 ], [ 121.748554576110323, 31.222496759154737 ], [ 121.70144542388968, 31.222496759154737 ], [ 121.70144542388968, 31.173503240845267 ], [ 121.748554576110323, 31.173503240845267 ] ] ] } },
{ "type": "Feature", "properties": { "parcel_id": "P017", "landuse": "居住", "pop_density": 8944 }, "geometry": { "type": "Polygon", "coordinates": [ [ [ 121.39936852512102, 31.224656733874134 ], [ 121.39936852512102, 31.275343266125869 ], [ 121.350631474878966, 31.275343266125869 ], [ 121.350631474878966, 31.224656733874134 ], [ 121.39936852512102, 31.224656733874134 ] ] ] } },
{ "type": "Feature", "properties": { "parcel_id": "P018", "landuse": "工业", "pop_density": 25016 }, "geometry": { "type": "Polygon", "coordinates": [ [ [ 121.448137128963936, 31.225937385877504 ], [ 121.448137128963936, 31.274062614122496 ], [ 121.401862871036059, 31.274062614122496 ], [ 121.401862871036059, 31.225937385877504 ], [ 121.448137128963936, 31.225937385877504 ] ] ] } },
{ "type": "Feature", "properties": { "parcel_id": "P019", "landuse": "绿地", "pop_density": 6998 }, "geometry": { "type": "Polygon", "coordinates": [ [ [ 121.499101195057804, 31.224934757139877 ], [ 121.499101195057804, 31.275065242860123 ], [ 121.450898804942184, 31.275065242860123 ], [ 121.450898804942184, 31.224934757139877 ], [ 121.499101195057804, 31.224934757139877 ] ] ] } },
{ "type": "Feature", "properties": { "parcel_id": "P020", "landuse": "商业", "pop_density": 20291 }, "geometry": { "type": "Polygon", "coordinates": [ [ [ 121.548424664716251, 31.225638348695089 ], [ 121.548424664716251, 31.274361651304911 ], [ 121.501575335283732, 31.274361651304911 ], [ 121.501575335283732, 31.225638348695089 ], [ 121.548424664716251, 31.225638348695089 ] ] ] } },
{ "type": "Feature", "properties": { "parcel_id": "P021", "landuse": "居住", "pop_density": 11733 }, "geometry": { "type": "Polygon", "coordinates": [ [ [ 121.599091637657239, 31.224944696836477 ], [ 121.599091637657239, 31.275055303163519 ], [ 121.550908362342767, 31.275055303163519 ], [ 121.550908362342767, 31.224944696836477 ], [ 121.599091637657239, 31.224944696836477 ] ] ] } },
{ "type": "Feature", "properties": { "parcel_id": "P022", "landuse": "居住", "pop_density": 23487 }, "geometry": { "type": "Polygon", "coordinates": [ [ [ 121.648816335565243, 31.225231011012141 ], [ 121.648816335565243, 31.274768988987859 ], [ 121.601183664434743, 31.274768988987859 ], [ 121.601183664434743, 31.225231011012141 ], [ 121.648816335565243, 31.225231011012141 ] ] ] } },
{ "type": "Feature", "properties": { "parcel_id": "P023", "landuse": "商业", "pop_density": 14310 }, "geometry": { "type": "Polygon", "coordinates": [ [ [ 121.699041065063781, 31.224997292333676 ], [ 121.699041065063781, 31.275002707666324 ], [ 121.650958934936227, 31.275002707666324 ], [ 121.650958934936227, 31.224997292333676 ], [ 121.699041065063781, 31.224997292333676 ] ] ] } },
{ "type": "Feature", "properties": { "parcel_id": "P024", "landuse": "工业", "pop_density": 4760 }, "geometry": { "type": "Polygon", "coordinates": [ [ [ 121.748215078573864, 31.225856318283185 ], [ 121.748215078573864, 31.274143681716815 ], [ 121.701784921426139, 31.274143681716815 ], [ 121.701784921426139, 31.225856318283185 ], [ 121.748215078573864, 31.225856318283185 ] ] ] } },
{ "type": "Feature", "properties": { "parcel_id": "P025", "landuse": "商业", "pop_density": 8163 }, "geometry": { "type": "Polygon", "coordinates": [ [ [ 121.398420805566076, 31.277642362211282 ], [ 121.398420805566076, 31.326357637788714 ], [ 121.351579194433924, 31.326357637788714 ], [ 121.351579194433924, 31.277642362211282 ], [ 121.398420805566076, 31.277642362211282 ] ] ] } },
{ "type": "Feature", "properties": { "parcel_id": "P026", "landuse": "工业", "pop_density": 16384 }, "geometry": { "type": "Polygon", "coordinates": [ [ [ 121.448623853046627, 31.277431192831504 ], [ 121.448623853046627, 31.326568807168496 ], [ 121.401376146953368, 31.326568807168496 ], [ 121.401376146953368, 31.277431192831504 ], [ 121.448623853046627, 31.277431192831504 ] ] ] } },
{ "type": "Feature", "properties": { "parcel_id": "P027", "landuse": "居住", "pop_density": 20501 }, "geometry": { "type": "Polygon", "coordinates": [ [ [ 121.499373333518278, 31.276651733140977 ], [ 121.499373333518278, 31.327348266859019 ], [ 121.450626666481696, 31.327348266859019 ], [ 121.450626666481696, 31.276651733140977 ], [ 121.499373333518278, 31.276651733140977 ] ] ] } },
{ "type": "Feature", "properties": { "parcel_id": "P028", "landuse": "居住", "pop_density": 1273 }, "geometry": { "type": "Polygon", "coordinates": [ [ [ 121.548759013771132, 31.27729062567802 ], [ 121.548759013771132, 31.326709374321975 ], [ 121.501240986228865, 31.326709374321975 ], [ 121.501240986228865, 31.27729062567802 ], [ 121.548759013771132, 31.27729062567802 ] ] ] } },
{ "type": "Feature", "properties": { "parcel_id": "P029", "landuse": "居住", "pop_density": 4719 }, "geometry": { "type": "Polygon", "coordinates": [ [ [ 121.599283213716703, 31.276745457734631 ], [ 121.599283213716703, 31.327254542265369 ], [ 121.550716786283303, 31.327254542265369 ], [ 121.550716786283303, 31.276745457734631 ], [ 121.599283213716703, 31.276745457734631 ] ] ] } },
{ "type": "Feature", "properties": { "parcel_id": "P030", "landuse": "绿地", "pop_density": 15361 }, "geometry": { "type": "Polygon", "coordinates": [ [ [ 121.649244110547187, 31.276786125030917 ], [ 121.649244110547187, 31.327213874969082 ], [ 121.600755889452799, 31.327213874969082 ], [ 121.600755889452799, 31.276786125030917 ], [ 121.649244110547187, 31.276786125030917 ] ] ] } },
{ "type": "Feature", "properties": { "parcel_id": "P031", "landuse": "居住", "pop_density": 16001 }, "geometry": { "type": "Polygon", "coordinates": [ [ [ 121.69862840829046, 31.277426455377931 ], [ 121.69862840829046, 31.326573544622065 ], [ 121.651371591709562, 31.326573544622065 ], [ 121.651371591709562, 31.277426455377931 ], [ 121.69862840829046, 31.277426455377931 ] ] ] } },
{ "type": "Feature", "properties": { "parcel_id": "P032", "landuse": "绿地", "pop_density": 15445 }, "geometry": { "type": "Polygon", "coordinates": [ [ [ 121.749465794193455, 31.276555574038806 ], [ 121.749465794193455, 31.327444425961193 ], [ 121.700534205806548, 31.327444425961193 ], [ 121.700534205806548, 31.276555574038806 ], [ 121.749465794193455, 31.276555574038806 ] ] ] } },
{ "type": "Feature", "properties": { "parcel_id": "P033", "landuse": "工业", "pop_density": 1875 }, "geometry": { "type": "Polygon", "coordinates": [ [ [ 121.39877654484458, 31.329272393361631 ], [ 121.39877654484458, 31.378727606638368 ], [ 121.351223455155406, 31.378727606638368 ], [ 121.351223455155406, 31.329272393361631 ], [ 121.39877654484458, 31.329272393361631 ] ] ] } },
{ "type": "Feature", "properties": { "parcel_id": "P034", "landuse": "商业", "pop_density": 2334 }, "geometry": { "type": "Polygon", "coordinates": [ [ [ 121.448770012503743, 31.329279186996107 ], [ 121.448770012503743, 31.378720813003891 ], [ 121.401229987496251, 31.378720813003891 ], [ 121.401229987496251, 31.329279186996107 ], [ 121.448770012503743, 31.329279186996107 ] ] ] } },
{ "type": "Feature", "properties": { "parcel_id": "P035", "landuse": "商业", "pop_density": 14189 }, "geometry": { "type": "Polygon", "coordinates": [ [ [ 121.498093260317532, 31.32998300926976 ], [ 121.498093260317532, 31.378016990730238 ], [ 121.451906739682457, 31.378016990730238 ], [ 121.451906739682457, 31.32998300926976 ], [ 121.498093260317532, 31.32998300926976 ] ] ] } },
{ "type": "Feature", "properties": { "parcel_id": "P036", "landuse": "居住", "pop_density": 12416 }, "geometry": { "type": "Polygon", "coordinates": [ [ [ 121.549099536505352, 31.328936482034422 ], [ 121.549099536505352, 31.379063517965573 ], [ 121.500900463494631, 31.379063517965573 ], [ 121.500900463494631, 31.328936482034422 ], [ 121.549099536505352, 31.328936482034422 ] ] ] } },
{ "type": "Feature", "properties": { "parcel_id": "P037", "landuse": "商业", "pop_density": 7541 }, "geometry": { "type": "Polygon", "coordinates": [ [ [ 121.598718991396296, 31.329332248947853 ], [ 121.598718991396296, 31.378667751052141 ], [ 121.551281008603709, 31.378667751052141 ], [ 121.551281008603709, 31.329332248947853 ], [ 121.598718991396296, 31.329332248947853 ] ] ] } },
{ "type": "Feature", "properties": { "parcel_id": "P038", "landuse": "绿地", "pop_density": 757 }, "geometry": { "type": "Polygon", "coordinates": [ [ [ 121.648260562113691, 31.329809015401743 ], [ 121.648260562113691, 31.378190984598255 ], [ 121.60173943788628, 31.378190984598255 ], [ 121.60173943788628, 31.329809015401743 ], [ 121.648260562113691, 31.329809015401743 ] ] ] } },
{ "type": "Feature", "properties": { "parcel_id": "P039", "landuse": "商业", "pop_density": 8344 }, "geometry": { "type": "Polygon", "coordinates": [ [ [ 121.699289626366507, 31.328738788578836 ], [ 121.699289626366507, 31.379261211421159 ], [ 121.650710373633501, 31.379261211421159 ], [ 121.650710373633501, 31.328738788578836 ], [ 121.699289626366507, 31.328738788578836 ] ] ] } },
{ "type": "Feature", "properties": { "parcel_id": "P040", "landuse": "居住", "pop_density": 3001 }, "geometry": { "type": "Polygon", "coordinates": [ [ [ 121.748491639860433, 31.329568694545141 ], [ 121.748491639860433, 31.378431305454857 ], [ 121.701508360139556, 31.378431305454857 ], [ 121.701508360139556, 31.329568694545141 ], [ 121.748491639860433, 31.329568694545141 ] ] ] } }
]
}
