{
"type": "FeatureCollection",
"name": "river",
"crs": { "type": "name", "properties": { "name": "urn:ogc:def:crs:OGC:1.3:CRS84" } },
"features": [
{ "type": "Feature", "properties": { "river_id": "长江支流·临江段", "width_m": 180 }, "geometry": { "type": "LineString", "coordinates": [ [ 121.37, 31.1928 ], [ 121.38565217391303, 31.197492599455185 ], [ 121.401304347826084, 31.202125296819819 ], [ 121.416956521739124, 31.206638954667049 ], [ 121.432608695652164, 31.21097595513632 ], [ 121.448260869565217, 31.215080935438348 ], [ 121.463913043478257, 31.218901494573615 ], [ 121.479565217391297, 31.222388862242969 ], [ 121.495217391304337, 31.225498521411467 ], [ 121.510869565217391, 31.22819077657838 ], [ 121.52652173913043, 31.230431260499213 ], [ 121.54217391304347, 31.232191372891329 ], [ 121.557826086956524, 31.233448645523026 ], [ 121.573478260869564, 31.234187029025549 ], [ 121.589130434782604, 31.234397097766941 ], [ 121.604782608695658, 31.234076170172326 ], [ 121.620434782608697, 31.233228342954842 ], [ 121.636086956521737, 31.231864438820164 ], [ 121.651739130434777, 31.230001868312229 ], [ 121.667391304347831, 31.227664407563704 ], [ 121.683043478260871, 31.224881894788304 ], [ 121.69869565217391, 31.221689849389257 ], [ 121.714347826086964, 31.218129018546104 ], [ 121.73, 31.214244857067772 ] ] } }
]
}
